[Satellite]
VERSION=1.1
NAME=FLOCK 3P-82
NICKNAME=FLOCK 3P-82
TLE1=1 42046U 17008DC  17186.17240890  .00002088  00000-0  92951-4 0  9994
TLE2=2 42046  97.4970 247.5025 0010223 127.3348 232.8821 15.22557344 20506
